CCSDS_OMM_VERS = 2.0
CREATION_DATE  = 
ORIGINATOR     = 

OBJECT_NAME    = SL-3 R/B
OBJECT_ID      = 1982-079B
CENTER_NAME    = EARTH
REF_FRAME      = TEME
TIME_SYSTEM    = UTC
MEAN_ELEMENT_THEORY = SGP/SGP4

EPOCH          = 2026-03-20T21:18:27.045792
MEAN_MOTION    = 15.24947143
ECCENTRICITY   = .00253983
INCLINATION    = 81.1490
RA_OF_ASC_NODE = 179.8557
ARG_OF_PERICENTER = 127.6649
MEAN_ANOMALY   = 232.6894

EPHEMERIS_TYPE = 0
CLASSIFICATION_TYPE = U
NORAD_CAT_ID   = 13403
ELEMENT_SET_NO = 999
REV_AT_EPOCH   = 37940
BSTAR          = .23686256E-3
MEAN_MOTION_DOT = .5981E-4
MEAN_MOTION_DDOT = 0

CCSDS_OMM_VERS = 2.0
CREATION_DATE  = 
ORIGINATOR     = 

OBJECT_NAME    = SL-14 R/B
OBJECT_ID      = 1982-092B
CENTER_NAME    = EARTH
REF_FRAME      = TEME
TIME_SYSTEM    = UTC
MEAN_ELEMENT_THEORY = SGP/SGP4

EPOCH          = 2026-03-20T21:42:33.043968
MEAN_MOTION    = 14.86676034
ECCENTRICITY   = .0018753
INCLINATION    = 82.5672
RA_OF_ASC_NODE = 130.9093
ARG_OF_PERICENTER = 263.4252
MEAN_ANOMALY   = 269.5004

EPHEMERIS_TYPE = 0
CLASSIFICATION_TYPE = U
NORAD_CAT_ID   = 13553
ELEMENT_SET_NO = 999
REV_AT_EPOCH   = 33059
BSTAR          = .39630487E-4
MEAN_MOTION_DOT = .377E-5
MEAN_MOTION_DDOT = 0

CCSDS_OMM_VERS = 2.0
CREATION_DATE  = 
ORIGINATOR     = 

OBJECT_NAME    = SL-3 R/B
OBJECT_ID      = 1983-010B
CENTER_NAME    = EARTH
REF_FRAME      = TEME
TIME_SYSTEM    = UTC
MEAN_ELEMENT_THEORY = SGP/SGP4

EPOCH          = 2026-03-20T21:20:45.413664
MEAN_MOTION    = 15.46716088
ECCENTRICITY   = .00169021
INCLINATION    = 81.1060
RA_OF_ASC_NODE = 348.5149
ARG_OF_PERICENTER = 13.8624
MEAN_ANOMALY   = 346.3081

EPHEMERIS_TYPE = 0
CLASSIFICATION_TYPE = U
NORAD_CAT_ID   = 13819
ELEMENT_SET_NO = 999
REV_AT_EPOCH   = 35967
BSTAR          = .28235022E-3
MEAN_MOTION_DOT = .14228E-3
MEAN_MOTION_DDOT = 0

CCSDS_OMM_VERS = 2.0
CREATION_DATE  = 
ORIGINATOR     = 

OBJECT_NAME    = SL-3 R/B
OBJECT_ID      = 1983-075B
CENTER_NAME    = EARTH
REF_FRAME      = TEME
TIME_SYSTEM    = UTC
MEAN_ELEMENT_THEORY = SGP/SGP4

EPOCH          = 2026-03-20T22:31:45.776928
MEAN_MOTION    = 15.38663370
ECCENTRICITY   = .00213248
INCLINATION    = 97.6139
RA_OF_ASC_NODE = 84.9438
ARG_OF_PERICENTER = 184.1006
MEAN_ANOMALY   = 176.0067

EPHEMERIS_TYPE = 0
CLASSIFICATION_TYPE = U
NORAD_CAT_ID   = 14208
ELEMENT_SET_NO = 999
REV_AT_EPOCH   = 33188
BSTAR          = .27383514E-3
MEAN_MOTION_DOT = .10453E-3
MEAN_MOTION_DDOT = 0

CCSDS_OMM_VERS = 2.0
CREATION_DATE  = 
ORIGINATOR     = 

OBJECT_NAME    = COSMOS 1536
OBJECT_ID      = 1984-013A
CENTER_NAME    = EARTH
REF_FRAME      = TEME
TIME_SYSTEM    = UTC
MEAN_ELEMENT_THEORY = SGP/SGP4

EPOCH          = 2026-03-20T18:01:55.121952
MEAN_MOTION    = 15.23962261
ECCENTRICITY   = .00126688
INCLINATION    = 82.5412
RA_OF_ASC_NODE = 96.8503
ARG_OF_PERICENTER = 239.3193
MEAN_ANOMALY   = 120.6797

EPHEMERIS_TYPE = 0
CLASSIFICATION_TYPE = U
NORAD_CAT_ID   = 14699
ELEMENT_SET_NO = 999
REV_AT_EPOCH   = 27430
BSTAR          = .24961414E-3
MEAN_MOTION_DOT = .6082E-4
MEAN_MOTION_DDOT = 0

CCSDS_OMM_VERS = 2.0
CREATION_DATE  = 
ORIGINATOR     = 

OBJECT_NAME    = SL-14 R/B
OBJECT_ID      = 1984-027B
CENTER_NAME    = EARTH
REF_FRAME      = TEME
TIME_SYSTEM    = UTC
MEAN_ELEMENT_THEORY = SGP/SGP4

EPOCH          = 2026-03-20T22:31:21.716256
MEAN_MOTION    = 14.85987600
ECCENTRICITY   = .0016628
INCLINATION    = 82.5400
RA_OF_ASC_NODE = 234.4608
ARG_OF_PERICENTER = 298.5914
MEAN_ANOMALY   = 61.3629

EPHEMERIS_TYPE = 0
CLASSIFICATION_TYPE = U
NORAD_CAT_ID   = 14820
ELEMENT_SET_NO = 999
REV_AT_EPOCH   = 24930
BSTAR          = .48095739E-4
MEAN_MOTION_DOT = .445E-5
MEAN_MOTION_DDOT = 0

CCSDS_OMM_VERS = 2.0
CREATION_DATE  = 
ORIGINATOR     = 

OBJECT_NAME    = SL-8 R/B
OBJECT_ID      = 1985-006B
CENTER_NAME    = EARTH
REF_FRAME      = TEME
TIME_SYSTEM    = UTC
MEAN_ELEMENT_THEORY = SGP/SGP4

EPOCH          = 2026-03-20T22:34:17.346720
MEAN_MOTION    = 14.37791290
ECCENTRICITY   = .00179859
INCLINATION    = 74.0439
RA_OF_ASC_NODE = 240.4438
ARG_OF_PERICENTER = 155.1743
MEAN_ANOMALY   = 321.0777

EPHEMERIS_TYPE = 0
CLASSIFICATION_TYPE = U
NORAD_CAT_ID   = 15483
ELEMENT_SET_NO = 999
REV_AT_EPOCH   = 15564
BSTAR          = .11093257E-3
MEAN_MOTION_DOT = .309E-5
MEAN_MOTION_DDOT = 0

CCSDS_OMM_VERS = 2.0
CREATION_DATE  = 
ORIGINATOR     = 

OBJECT_NAME    = SL-12 R/B(2)
OBJECT_ID      = 1985-042D
CENTER_NAME    = EARTH
REF_FRAME      = TEME
TIME_SYSTEM    = UTC
MEAN_ELEMENT_THEORY = SGP/SGP4

EPOCH          = 2026-03-20T22:48:58.816800
MEAN_MOTION    = 14.21985305
ECCENTRICITY   = .00329266
INCLINATION    = 71.1070
RA_OF_ASC_NODE = 63.9350
ARG_OF_PERICENTER = 109.4950
MEAN_ANOMALY   = 317.7602

EPHEMERIS_TYPE = 0
CLASSIFICATION_TYPE = U
NORAD_CAT_ID   = 15772
ELEMENT_SET_NO = 999
REV_AT_EPOCH   = 11599
BSTAR          = .36170365E-4
MEAN_MOTION_DOT = .33E-6
MEAN_MOTION_DDOT = 0

CCSDS_OMM_VERS = 2.0
CREATION_DATE  = 
ORIGINATOR     = 

OBJECT_NAME    = SL-14 R/B
OBJECT_ID      = 1985-069B
CENTER_NAME    = EARTH
REF_FRAME      = TEME
TIME_SYSTEM    = UTC
MEAN_ELEMENT_THEORY = SGP/SGP4

EPOCH          = 2026-03-20T07:32:06.594144
MEAN_MOTION    = 14.86444467
ECCENTRICITY   = .0019425
INCLINATION    = 82.5300
RA_OF_ASC_NODE = 14.9449
ARG_OF_PERICENTER = 152.8819
MEAN_ANOMALY   = 207.3417

EPHEMERIS_TYPE = 0
CLASSIFICATION_TYPE = U
NORAD_CAT_ID   = 15945
ELEMENT_SET_NO = 999
REV_AT_EPOCH   = 17441
BSTAR          = .47606E-4
MEAN_MOTION_DOT = .446E-5
MEAN_MOTION_DDOT = 0

CCSDS_OMM_VERS = 2.0
CREATION_DATE  = 
ORIGINATOR     = 

OBJECT_NAME    = SL-16 R/B
OBJECT_ID      = 1985-097B
CENTER_NAME    = EARTH
REF_FRAME      = TEME
TIME_SYSTEM    = UTC
MEAN_ELEMENT_THEORY = SGP/SGP4

EPOCH          = 2026-03-20T21:11:22.387200
MEAN_MOTION    = 14.16600808
ECCENTRICITY   = .00095905
INCLINATION    = 71.0013
RA_OF_ASC_NODE = 116.9893
ARG_OF_PERICENTER = 246.3199
MEAN_ANOMALY   = 286.5971

EPHEMERIS_TYPE = 0
CLASSIFICATION_TYPE = U
NORAD_CAT_ID   = 16182
ELEMENT_SET_NO = 999
REV_AT_EPOCH   = 8881
BSTAR          = .16311558E-3
MEAN_MOTION_DOT = .278E-5
MEAN_MOTION_DDOT = 0

CCSDS_OMM_VERS = 2.0
CREATION_DATE  = 
ORIGINATOR     = 

OBJECT_NAME    = SL-14 R/B
OBJECT_ID      = 1986-006B
CENTER_NAME    = EARTH
REF_FRAME      = TEME
TIME_SYSTEM    = UTC
MEAN_ELEMENT_THEORY = SGP/SGP4

EPOCH          = 2026-03-20T23:04:14.898720
MEAN_MOTION    = 14.86830870
ECCENTRICITY   = .00753007
INCLINATION    = 82.5239
RA_OF_ASC_NODE = 249.1256
ARG_OF_PERICENTER = 234.7218
MEAN_ANOMALY   = 124.6940

EPHEMERIS_TYPE = 0
CLASSIFICATION_TYPE = U
NORAD_CAT_ID   = 16496
ELEMENT_SET_NO = 999
REV_AT_EPOCH   = 15088
BSTAR          = .72495632E-4
MEAN_MOTION_DOT = .706E-5
MEAN_MOTION_DDOT = 0

CCSDS_OMM_VERS = 2.0
CREATION_DATE  = 
ORIGINATOR     = 

OBJECT_NAME    = COSMOS 1743
OBJECT_ID      = 1986-034A
CENTER_NAME    = EARTH
REF_FRAME      = TEME
TIME_SYSTEM    = UTC
MEAN_ELEMENT_THEORY = SGP/SGP4

EPOCH          = 2026-03-20T22:32:06.201888
MEAN_MOTION    = 15.59373093
ECCENTRICITY   = .0002657
INCLINATION    = 82.5296
RA_OF_ASC_NODE = 62.0146
ARG_OF_PERICENTER = 200.4512
MEAN_ANOMALY   = 159.6639

EPHEMERIS_TYPE = 0
CLASSIFICATION_TYPE = U
NORAD_CAT_ID   = 16719
ELEMENT_SET_NO = 999
REV_AT_EPOCH   = 18200
BSTAR          = .50354023E-3
MEAN_MOTION_DOT = .39868E-3
MEAN_MOTION_DDOT = 0

